ONEWEB-0196             
1 48218U 21031J   25130.70619587 -.00000810  00000+0 -22199-2 0  9999
2 48218  87.9075   9.7688 0001755  84.7904 275.3425 13.14506807195344
ONEWEB-0183             
1 48219U 21031K   25130.68081925 -.00000154  00000+0 -44945-3 0  9991
2 48219  87.9074   9.7867 0001971  80.7632 279.3720 13.14504129195445
ONEWEB-0185             
1 48220U 21031L   25131.08757702 -.00000004  00000+0 -44473-4 0  9992
2 48220  87.9067   9.6745 0002017  87.2745 272.8616 13.14503572195423
ONEWEB-0187             
1 48221U 21031M   25130.91538853 -.00000175  00000+0 -50689-3 0  9992
2 48221  87.9072   9.7513 0002035  90.2949 269.8414 13.14502112195414
ONEWEB-0192             
1 48222U 21031N   25131.11375419  .00000257  00000+0  65966-3 0  9996
2 48222  87.9072   9.7053 0001743  84.8938 275.2391 13.14501938195360
ONEWEB-0219             
1 48223U 21031P   25131.09313508  .00000071  00000+0  15571-3 0  9996
2 48223  87.9071   9.6821 0001978  88.9133 271.2223 13.14502330195563
ONEWEB-0202             
1 48224U 21031Q   25131.07411037 -.00000165  00000+0 -47984-3 0  9990
2 48224  87.9069   9.7010 0001632 108.6944 251.4363 13.14502336195548
ONEWEB-0204             
1 48225U 21031R   25131.10820176  .00000300  00000+0  77437-3 0  9998
2 48225  87.9048   9.7036 0002056  77.2598 282.8761 13.14501859195449
